{
    "links": {
        "self": "http://www.neowsapp.com/rest/v1/neo/3752730?api_key=iIulBulltgU6a56xZRHN4H3l9WmuAYTsLGpBGhQ2"
    },
    "id": "3752730",
    "neo_reference_id": "3752730",
    "name": "(2016 JV)",
    "designation": "2016 JV",
    "nasa_jpl_url": "http://ssd.jpl.nasa.gov/sbdb.cgi?sstr=3752730",
    "absolute_magnitude_h": 24.9,
    "estimated_diameter": {
        "kilometers": {
            "estimated_diameter_min": 0.0278326768,
            "estimated_diameter_max": 0.0622357573
        },
        "meters": {
            "estimated_diameter_min": 27.8326768072,
            "estimated_diameter_max": 62.2357573367
        },
        "miles": {
            "estimated_diameter_min": 0.0172944182,
            "estimated_diameter_max": 0.0386714948
        },
        "feet": {
            "estimated_diameter_min": 91.3145593761,
            "estimated_diameter_max": 204.1855621004
        }
    },
    "is_potentially_hazardous_asteroid": false,
    "close_approach_data": [
        {
            "close_approach_date": "2013-08-14",
            "close_approach_date_full": "2013-Aug-14 04:17",
            "epoch_date_close_approach": 1376453820000,
            "relative_velocity": {
                "kilometers_per_second": "14.37585519",
                "kilometers_per_hour": "51753.0786840652",
                "miles_per_hour": "32157.3504745515"
            },
            "miss_distance": {
                "astronomical": "0.2467767834",
                "lunar": "95.9961687426",
                "kilometers": "36917281.162091358",
                "miles": "22939334.8030344204"
            },
            "orbiting_body": "Earth"
        },
        {
            "close_approach_date": "2016-06-08",
            "close_approach_date_full": "2016-Jun-08 11:27",
            "epoch_date_close_approach": 1465385220000,
            "relative_velocity": {
                "kilometers_per_second": "7.4941094855",
                "kilometers_per_hour": "26978.7941479107",
                "miles_per_hour": "16763.5735081837"
            },
            "miss_distance": {
                "astronomical": "0.0421638936",
                "lunar": "16.4017546104",
                "kilometers": "6307628.673466632",
                "miles": "3919378.7136862416"
            },
            "orbiting_body": "Earth"
        },
        {
            "close_approach_date": "2019-05-02",
            "close_approach_date_full": "2019-May-02 16:26",
            "epoch_date_close_approach": 1556814360000,
            "relative_velocity": {
                "kilometers_per_second": "19.3519306016",
                "kilometers_per_hour": "69666.9501658705",
                "miles_per_hour": "43288.3335627877"
            },
            "miss_distance": {
                "astronomical": "0.4104602752",
                "lunar": "159.6690470528",
                "kilometers": "61403982.889533824",
                "miles": "38154665.7121978112"
            },
            "orbiting_body": "Earth"
        }
    ],
    "orbital_data": {
        "orbit_id": "10",
        "orbit_determination_date": "2017-04-06 08:26:13",
        "first_observation_date": "2016-05-01",
        "last_observation_date": "2016-06-07",
        "data_arc_in_days": 37,
        "observations_used": 35,
        "orbit_uncertainty": "6",
        "minimum_orbit_intersection": ".0362314",
        "jupiter_tisserand_invariant": "3.626",
        "epoch_osculation": "2459000.5",
        "eccentricity": ".4990053747880528",
        "semi_major_axis": "2.049231765898834",
        "inclination": "2.649237386628271",
        "ascending_node_longitude": "42.84715377050593",
        "orbital_period": "1071.482410385225",
        "perihelion_distance": "1.026654100528903",
        "perihelion_argument": "233.3042153373715",
        "aphelion_distance": "3.071809431268765",
        "perihelion_time": "2458634.851557779723",
        "mean_anomaly": "122.8517033256516",
        "mean_motion": ".3359831169515613",
        "equinox": "J2000",
        "orbit_class": {
            "orbit_class_type": "AMO",
            "orbit_class_description": "Near-Earth asteroid orbits similar to that of 1221 Amor",
            "orbit_class_range": "1.017 AU < q (perihelion) < 1.3 AU"
        }
    },
    "is_sentry_object": false
}